start=new Date('2021-10-04T00:00:00.000Z').valueOf();
sats=[{"CLASSIFICATION_TYPE":"U","BSTAR":"-0.00008352500000","MEAN_MOTION_DDOT":"0.0000000000000","INCLINATION":"53.0552","TIME_SYSTEM":"UTC","MEAN_ELEMENT_THEORY":"SGP4","PERIAPSIS":"544.348","LAUNCH_DATE":"2020-10-24","TLE_LINE2":"2 46743  53.0552  24.9438 0004185 335.9413  24.1380 15.06389277 52814","MEAN_MOTION_DOT":"-0.00001526","DECAY_DATE":null,"ARG_OF_PERICENTER":"335.9413","APOAPSIS":"550.145","RA_OF_ASC_NODE":"24.9438","GP_ID":"186141312","EPOCH":"2021-10-03T17:24:42.436224","OBJECT_ID":"2020-074E","ELEMENT_SET_NO":"999","REF_FRAME":"TEME","SEMIMAJOR_AXIS":"6925.381","MEAN_MOTION":"15.06389277","TLE_LINE1":"1 46743U 20074E   21276.72549116 -.00001526  00000-0 -83525-4 0  9993","FILE":"3143202","MEAN_ANOMALY":"24.1380","NORAD_CAT_ID":"46743","OBJECT_TYPE":"PAYLOAD","PERIOD":"95.593","SITE":"AFETR","CENTER_NAME":"EARTH","ECCENTRICITY":"0.00041850","EPHEMERIS_TYPE":"0","COUNTRY_CODE":"US","OBJECT_NAME":"STARLINK-1892","RCS_SIZE":"LARGE","REV_AT_EPOCH":"5281"},{"EPOCH":"2021-10-03T16:15:43.611840","OBJECT_ID":"2020-074F","ELEMENT_SET_NO":"999","REF_FRAME":"TEME","SEMIMAJOR_AXIS":"6925.376","MEAN_MOTION":"15.06390900","FILE":"3143202","TLE_LINE1":"1 46744U 20074F   21276.67758810  .00001378  00000-0  11141-3 0  9998","MEAN_ANOMALY":"255.3840","NORAD_CAT_ID":"46744","OBJECT_TYPE":"PAYLOAD","PERIOD":"95.593","SITE":"AFETR","CENTER_NAME":"EARTH","ECCENTRICITY":"0.00011800","EPHEMERIS_TYPE":"0","COUNTRY_CODE":"US","OBJECT_NAME":"STARLINK-1894","RCS_SIZE":"LARGE","REV_AT_EPOCH":"5280","CLASSIFICATION_TYPE":"U","BSTAR":"0.00011141000000","MEAN_MOTION_DDOT":"0.0000000000000","INCLINATION":"53.0548","TIME_SYSTEM":"UTC","MEAN_ELEMENT_THEORY":"SGP4","PERIAPSIS":"546.424","LAUNCH_DATE":"2020-10-24","TLE_LINE2":"2 46744  53.0548  25.1589 0001180 104.7280 255.3840 15.06390900 52809","MEAN_MOTION_DOT":"0.00001378","DECAY_DATE":null,"ARG_OF_PERICENTER":"104.7280","APOAPSIS":"548.059","RA_OF_ASC_NODE":"25.1589","GP_ID":"186141562"},{"ECCENTRICITY":"0.00013000","NORAD_CAT_ID":"46745","OBJECT_TYPE":"PAYLOAD","PERIOD":"95.592","SITE":"AFETR","CENTER_NAME":"EARTH","RCS_SIZE":"LARGE","REV_AT_EPOCH":"5281","COUNTRY_CODE":"US","EPHEMERIS_TYPE":"0","OBJECT_NAME":"STARLINK-1898","ELEMENT_SET_NO":"999","REF_FRAME":"TEME","EPOCH":"2021-10-03T18:23:05.539776","OBJECT_ID":"2020-074G","MEAN_ANOMALY":"257.6996","SEMIMAJOR_AXIS":"6925.357","MEAN_MOTION":"15.06397382","TLE_LINE1":"1 46745U 20074G   21276.76603634 -.00001001  00000-0 -48348-4 0  9997","FILE":"3143202","DECAY_DATE":null,"GP_ID":"186142800","ARG_OF_PERICENTER":"102.4138","RA_OF_ASC_NODE":"24.7473","APOAPSIS":"548.122","BSTAR":"-0.00004834800000","MEAN_MOTION_DDOT":"0.0000000000000","INCLINATION":"53.0563","TIME_SYSTEM":"UTC","CLASSIFICATION_TYPE":"U","LAUNCH_DATE":"2020-10-24","TLE_LINE2":"2 46745  53.0563  24.7473 0001300 102.4138 257.6996 15.06397382 52814","MEAN_MOTION_DOT":"-0.00001001","MEAN_ELEMENT_THEORY":"SGP4","PERIAPSIS":"546.321"},{"MEAN_MOTION_DOT":"-0.00001422","TLE_LINE2":"2 46746  53.0564  25.0818 0001269  99.6852 260.4280 15.06389133 52809","LAUNCH_DATE":"2020-10-24","PERIAPSIS":"546.368","MEAN_ELEMENT_THEORY":"SGP4","TIME_SYSTEM":"UTC","INCLINATION":"53.0564","BSTAR":"-0.00007660700000","MEAN_MOTION_DDOT":"0.0000000000000","CLASSIFICATION_TYPE":"U","GP_ID":"186143051","APOAPSIS":"548.126","RA_OF_ASC_NODE":"25.0818","ARG_OF_PERICENTER":"99.6852","DECAY_DATE":null,"MEAN_ANOMALY":"260.4280","TLE_LINE1":"1 46746U 20074H   21276.69232412 -.00001422  00000-0 -76607-4 0  9998","FILE":"3143202","MEAN_MOTION":"15.06389133","SEMIMAJOR_AXIS":"6925.382","REF_FRAME":"TEME","ELEMENT_SET_NO":"999","OBJECT_ID":"2020-074H","EPOCH":"2021-10-03T16:36:56.803968","REV_AT_EPOCH":"5280","RCS_SIZE":"LARGE","OBJECT_NAME":"STARLINK-1905","COUNTRY_CODE":"US","EPHEMERIS_TYPE":"0","ECCENTRICITY":"0.00012690","SITE":"AFETR","CENTER_NAME":"EARTH","PERIOD":"95.593","OBJECT_TYPE":"PAYLOAD","NORAD_CAT_ID":"46746"},{"APOAPSIS":"548.146","RA_OF_ASC_NODE":"24.8702","ARG_OF_PERICENTER":"99.9157","GP_ID":"186141799","DECAY_DATE":null,"PERIAPSIS":"546.359","MEAN_ELEMENT_THEORY":"SGP4","MEAN_MOTION_DOT":"-0.00001061","TLE_LINE2":"2 46747  53.0556  24.8702 0001290  99.9157 260.1978 15.06387175 52811","LAUNCH_DATE":"2020-10-24","CLASSIFICATION_TYPE":"U","TIME_SYSTEM":"UTC","INCLINATION":"53.0556","BSTAR":"-0.00005238900000","MEAN_MOTION_DDOT":"0.0000000000000","OBJECT_NAME":"STARLINK-1908","EPHEMERIS_TYPE":"0","COUNTRY_CODE":"US","REV_AT_EPOCH":"5281","RCS_SIZE":"LARGE","SITE":"AFETR","CENTER_NAME":"EARTH","PERIOD":"95.593","OBJECT_TYPE":"PAYLOAD","NORAD_CAT_ID":"46747","ECCENTRICITY":"0.00012900","TLE_LINE1":"1 46747U 20074J   21276.74024370 -.00001061  00000-0 -52389-4 0  9997","FILE":"3143202","MEAN_MOTION":"15.06387175","SEMIMAJOR_AXIS":"6925.388","MEAN_ANOMALY":"260.1978","OBJECT_ID":"2020-074J","EPOCH":"2021-10-03T17:45:57.055680","REF_FRAME":"TEME","ELEMENT_SET_NO":"999"},{"CLASSIFICATION_TYPE":"U","INCLINATION":"53.0562","TIME_SYSTEM":"UTC","BSTAR":"0.00005961600000","MEAN_MOTION_DDOT":"0.0000000000000","PERIAPSIS":"547.156","MEAN_ELEMENT_THEORY":"SGP4","TLE_LINE2":"2 46748  53.0562  25.1430 0000116  38.4907 321.6090 15.06392555 52803","LAUNCH_DATE":"2020-10-24","MEAN_MOTION_DOT":"0.00000607","DECAY_DATE":null,"RA_OF_ASC_NODE":"25.1430","APOAPSIS":"547.317","ARG_OF_PERICENTER":"38.4907","GP_ID":"186142049","EPOCH":"2021-10-03T16:21:01.501632","OBJECT_ID":"2020-074K","REF_FRAME":"TEME","ELEMENT_SET_NO":"999","TLE_LINE1":"1 46748U 20074K   21276.68126738  .00000607  00000-0  59616-4 0  9995","FILE":"3143202","SEMIMAJOR_AXIS":"6925.371","MEAN_MOTION":"15.06392555","MEAN_ANOMALY":"321.6090","PERIOD":"95.593","CENTER_NAME":"EARTH","SITE":"AFETR","NORAD_CAT_ID":"46748","OBJECT_TYPE":"PAYLOAD","ECCENTRICITY":"0.00001160","COUNTRY_CODE":"US","EPHEMERIS_TYPE":"0","OBJECT_NAME":"STARLINK-1910","REV_AT_EPOCH":"5280","RCS_SIZE":"LARGE"},{"GP_ID":"186142314","ARG_OF_PERICENTER":"101.1207","APOAPSIS":"548.140","RA_OF_ASC_NODE":"25.1057","DECAY_DATE":null,"MEAN_MOTION_DOT":"0.00000610","LAUNCH_DATE":"2020-10-24","TLE_LINE2":"2 46749  53.0569  25.1057 0001317 101.1207 258.9931 15.06395401 52800","MEAN_ELEMENT_THEORY":"SGP4","PERIAPSIS":"546.316","BSTAR":"0.00005984000000","MEAN_MOTION_DDOT":"0.0000000000000","TIME_SYSTEM":"UTC","INCLINATION":"53.0569","CLASSIFICATION_TYPE":"U","RCS_SIZE":"LARGE","REV_AT_EPOCH":"5280","OBJECT_NAME":"STARLINK-1911","COUNTRY_CODE":"US","EPHEMERIS_TYPE":"0","ECCENTRICITY":"0.00013170","OBJECT_TYPE":"PAYLOAD","NORAD_CAT_ID":"46749","SITE":"AFETR","CENTER_NAME":"EARTH","PERIOD":"95.592","MEAN_ANOMALY":"258.9931","MEAN_MOTION":"15.06395401","SEMIMAJOR_AXIS":"6925.363","FILE":"3143202","TLE_LINE1":"1 46749U 20074L   21276.68863568  .00000610  00000-0  59840-4 0  9998","ELEMENT_SET_NO":"999","REF_FRAME":"TEME","OBJECT_ID":"2020-074L","EPOCH":"2021-10-03T16:31:38.122752"},{"NORAD_CAT_ID":"46751","OBJECT_TYPE":"PAYLOAD","PERIOD":"95.593","SITE":"AFETR","CENTER_NAME":"EARTH","ECCENTRICITY":"0.00012340","EPHEMERIS_TYPE":"0","COUNTRY_CODE":"US","OBJECT_NAME":"STARLINK-1920","RCS_SIZE":"LARGE","REV_AT_EPOCH":"5280","EPOCH":"2021-10-03T16:26:19.811328","OBJECT_ID":"2020-074N","ELEMENT_SET_NO":"999","REF_FRAME":"TEME","SEMIMAJOR_AXIS":"6925.368","MEAN_MOTION":"15.06393544","TLE_LINE1":"1 46751U 20074N   21276.68495152 -.00001218  00000-0 -62929-4 0  9990","FILE":"3143202","MEAN_ANOMALY":"266.9054","DECAY_DATE":null,"ARG_OF_PERICENTER":"93.2077","RA_OF_ASC_NODE":"25.1303","APOAPSIS":"548.088","GP_ID":"186142565","CLASSIFICATION_TYPE":"U","MEAN_MOTION_DDOT":"0.0000000000000","BSTAR":"-0.00006292900000","INCLINATION":"53.0557","TIME_SYSTEM":"UTC","MEAN_ELEMENT_THEORY":"SGP4","PERIAPSIS":"546.379","LAUNCH_DATE":"2020-10-24","TLE_LINE2":"2 46751  53.0557  25.1303 0001234  93.2077 266.9054 15.06393544 52809","MEAN_MOTION_DOT":"-0.00001218"},{"EPHEMERIS_TYPE":"0","COUNTRY_CODE":"US","OBJECT_NAME":"STARLINK-1921","REV_AT_EPOCH":"5280","RCS_SIZE":"LARGE","PERIOD":"95.592","SITE":"AFETR","CENTER_NAME":"EARTH","NORAD_CAT_ID":"46752","OBJECT_TYPE":"PAYLOAD","ECCENTRICITY":"0.00006680","TLE_LINE1":"1 46752U 20074P   21276.69600433  .00000348  00000-0  42221-4 0  9996","FILE":"3143202","SEMIMAJOR_AXIS":"6925.365","MEAN_MOTION":"15.06394506","MEAN_ANOMALY":"185.7988","EPOCH":"2021-10-03T16:42:14.774112","OBJECT_ID":"2020-074P","REF_FRAME":"TEME","ELEMENT_SET_NO":"999","RA_OF_ASC_NODE":"25.0866","APOAPSIS":"547.693","ARG_OF_PERICENTER":"174.3008","GP_ID":"186141313","DECAY_DATE":null,"PERIAPSIS":"546.768","MEAN_ELEMENT_THEORY":"SGP4","LAUNCH_DATE":"2020-10-24","TLE_LINE2":"2 46752  53.0574  25.0866 0000668 174.3008 185.7988 15.06394506 52800","MEAN_MOTION_DOT":"0.00000348","CLASSIFICATION_TYPE":"U","INCLINATION":"53.0574","TIME_SYSTEM":"UTC","BSTAR":"0.00004222100000","MEAN_MOTION_DDOT":"0.0000000000000"},{"ARG_OF_PERICENTER":"106.8927","APOAPSIS":"548.100","RA_OF_ASC_NODE":"24.6239","GP_ID":"186141563","DECAY_DATE":null,"MEAN_ELEMENT_THEORY":"SGP4","PERIAPSIS":"546.338","LAUNCH_DATE":"2020-10-24","TLE_LINE2":"2 46753  53.0558  24.6239 0001272 106.8927 253.2202 15.06398275 52823","MEAN_MOTION_DOT":"-0.00000667","CLASSIFICATION_TYPE":"U","MEAN_MOTION_DDOT":"0.0000000000000","BSTAR":"-0.00002588800000","INCLINATION":"53.0558","TIME_SYSTEM":"UTC","EPHEMERIS_TYPE":"0","COUNTRY_CODE":"US","OBJECT_NAME":"STARLINK-1922","RCS_SIZE":"LARGE","REV_AT_EPOCH":"5282","NORAD_CAT_ID":"46753","OBJECT_TYPE":"PAYLOAD","PERIOD":"95.592","CENTER_NAME":"EARTH","SITE":"AFETR","ECCENTRICITY":"0.00012720","SEMIMAJOR_AXIS":"6925.354","MEAN_MOTION":"15.06398275","FILE":"3143202","TLE_LINE1":"1 46753U 20074Q   21276.79552116 -.00000667  00000-0 -25888-4 0  9998","MEAN_ANOMALY":"253.2202","EPOCH":"2021-10-03T19:05:33.028224","OBJECT_ID":"2020-074Q","ELEMENT_SET_NO":"999","REF_FRAME":"TEME"}];
